[{"OBJECT_NAME":"STARLINK-1800","OBJECT_ID":"2020-073AG","EPOCH":"2026-03-10T00:00:02.999808","MEAN_MOTION":15.79776144,"ECCENTRICITY":0.00048232,"INCLINATION":53.0392,"RA_OF_ASC_NODE":207.8023,"ARG_OF_PERICENTER":307.6463,"MEAN_ANOMALY":354.6539,"EPHEMERIS_TYPE":0,"CLASSIFICATION_TYPE":"U","NORAD_CAT_ID":46700,"ELEMENT_SET_NO":999,"REV_AT_EPOCH":598,"BSTAR":0.001050296,"MEAN_MOTION_DOT":0.00201242,"MEAN_MOTION_DDOT":0},{"OBJECT_NAME":"STARLINK-36856","OBJECT_ID":"2026-035E","EPOCH":"2026-03-09T22:00:01.999584","MEAN_MOTION":15.87108226,"ECCENTRICITY":0.00010775,"INCLINATION":97.2727,"RA_OF_ASC_NODE":1.2609,"ARG_OF_PERICENTER":86.5164,"MEAN_ANOMALY":326.6387,"EPHEMERIS_TYPE":0,"CLASSIFICATION_TYPE":"U","NORAD_CAT_ID":67883,"ELEMENT_SET_NO":999,"REV_AT_EPOCH":379,"BSTAR":-0.0052706142,"MEAN_MOTION_DOT":-0.01211483,"MEAN_MOTION_DDOT":0}]
